{"type": "FeatureCollection", "features": [ {"type": "Feature", "properties": {"norad_id": 34432, "name": "COSMOS 2251 DEB", "group": "cosmos-2251-debris", "lat": 16.371527743827368, "lon": 91.81608960082485, "alt_km": 998.835877428658, "timestamp": "2025-12-21T11:31:43.253770+00:00", "meta": {"OBJECT_NAME": "COSMOS 2251 DEB", "OBJECT_ID": "1993-036RZ", "EPOCH": "2025-12-20T17:11:52.156896", "MEAN_MOTION": 14.02937662, "ECCENTRICITY": 0.01818257, "INCLINATION": 73.8282, "RA_OF_ASC_NODE": 88.2711, "ARG_OF_PERICENTER": 169.7091, "MEAN_ANOMALY": 312.4038, "EPHEMERIS_TYPE": 0, "CLASSIFICATION_TYPE": "U", "NORAD_CAT_ID": 34432, "ELEMENT_SET_NO": 999, "REV_AT_EPOCH": 85796, "BSTAR": 0.00073625143, "MEAN_MOTION_DOT": 1.296e-05, "MEAN_MOTION_DDOT": 0}, "tle": {"line1": "1 34432U 93036RZ  25354.71657589  .00001296  00000+0  73625-3 0  9997", "line2": "2 34432  73.8282  88.2711 0181825 169.7091 312.4038 14.02937662857969"}}, "geometry": {"type": "Point", "coordinates": [91.81608960082485, 16.371527743827368]}}, {"type": "Feature", "properties": {"norad_id": 34433, "name": "COSMOS 2251 DEB", "group": "cosmos-2251-debris", "lat": -3.4727781305037273, "lon": 138.46175519591563, "alt_km": 833.2802082597991, "timestamp": "2025-12-21T11:31:43.253781+00:00", "meta": {"OBJECT_NAME": "COSMOS 2251 DEB", "OBJECT_ID": "1993-036SA", "EPOCH": "2025-12-20T20:15:06.518880", "MEAN_MOTION": 14.12884599, "ECCENTRICITY": 0.0152723, "INCLINATION": 74.0101, "RA_OF_ASC_NODE": 140.5858, "ARG_OF_PERICENTER": 276.9549, "MEAN_ANOMALY": 81.4241, "EPHEMERIS_TYPE": 0, "CLASSIFICATION_TYPE": "U", "NORAD_CAT_ID": 34433, "ELEMENT_SET_NO": 999, "REV_AT_EPOCH": 86064, "BSTAR": 0.00076987, "MEAN_MOTION_DOT": 1.574e-05, "MEAN_MOTION_DDOT": 0}, "tle": {"line1": "1 34433U 93036SA  25354.84382545  .00001574  00000+0  76987-3 0  9992", "line2": "2 34433  74.0101 140.5858 0152723 276.9549  81.4241 14.12884599860640"}}, "geometry": {"type": "Point", "coordinates": [138.46175519591563, -3.4727781305037273]}}, {"type": "Feature", "properties": {"norad_id": 34434, "name": "COSMOS 2251 DEB", "group": "cosmos-2251-debris", "lat": -59.767276993816026, "lon": -155.37884336808213, "alt_km": 1010.8557858472332, "timestamp": "2025-12-21T11:31:43.253791+00:00", "meta": {"OBJECT_NAME": "COSMOS 2251 DEB", "OBJECT_ID": "1993-036SB", "EPOCH": "2025-12-21T04:04:05.065248", "MEAN_MOTION": 13.89854955, "ECCENTRICITY": 0.0273902, "INCLINATION": 74.0621, "RA_OF_ASC_NODE": 355.7879, "ARG_OF_PERICENTER": 131.0834, "MEAN_ANOMALY": 355.1562, "EPHEMERIS_TYPE": 0, "CLASSIFICATION_TYPE": "U", "NORAD_CAT_ID": 34434, "ELEMENT_SET_NO": 999, "REV_AT_EPOCH": 84083, "BSTAR": 0.0013712, "MEAN_MOTION_DOT": 2.26e-05, "MEAN_MOTION_DDOT": 0}, "tle": {"line1": "1 34434U 93036SB  25355.16950307  .00002260  00000+0  13712-2 0  9995", "line2": "2 34434  74.0621 355.7879 0273902 131.0834 355.1562 13.89854955840834"}}, "geometry": {"type": "Point", "coordinates": [-155.37884336808213, -59.767276993816026]}}, {"type": "Feature", "properties": {"norad_id": 34446, "name": "COSMOS 2251 DEB", "group": "cosmos-2251-debris", "lat": 39.59695121121705, "lon": -152.80048031828244, "alt_km": 696.0086568079842, "timestamp": "2025-12-21T11:31:43.253801+00:00", "meta": {"OBJECT_NAME": "COSMOS 2251 DEB", "OBJECT_ID": "1993-036SP", "EPOCH": "2025-12-20T13:21:19.051200", "MEAN_MOTION": 14.49360911, "ECCENTRICITY": 0.005077, "INCLINATION": 74.0417, "RA_OF_ASC_NODE": 42.6229, "ARG_OF_PERICENTER": 178.8046, "MEAN_ANOMALY": 181.3246, "EPHEMERIS_TYPE": 0, "CLASSIFICATION_TYPE": "U", "NORAD_CAT_ID": 34446, "ELEMENT_SET_NO": 999, "REV_AT_EPOCH": 88807, "BSTAR": 8.7219e-05, "MEAN_MOTION_DOT": 3.1e-06, "MEAN_MOTION_DDOT": 0}, "tle": {"line1": "1 34446U 93036SP  25354.55647050  .00000310  00000+0  87219-4 0  9997", "line2": "2 34446  74.0417  42.6229 0050770 178.8046 181.3246 14.49360911888078"}}, "geometry": {"type": "Point", "coordinates": [-152.80048031828244, 39.59695121121705]}}, {"type": "Feature", "properties": {"norad_id": 34449, "name": "COSMOS 2251 DEB", "group": "cosmos-2251-debris", "lat": -68.54781556321507, "lon": 6.153157520690963, "alt_km": 603.7327590193618, "timestamp": "2025-12-21T11:31:43.253812+00:00", "meta": {"OBJECT_NAME": "COSMOS 2251 DEB", "OBJECT_ID": "1993-036SS", "EPOCH": "2025-12-19T05:31:05.790432", "MEAN_MOTION": 14.95222496, "ECCENTRICITY": 0.0022749, "INCLINATION": 74.0328, "RA_OF_ASC_NODE": 57.4655, "ARG_OF_PERICENTER": 95.9476, "MEAN_ANOMALY": 319.8524, "EPHEMERIS_TYPE": 0, "CLASSIFICATION_TYPE": "U", "NORAD_CAT_ID": 34449, "ELEMENT_SET_NO": 999, "REV_AT_EPOCH": 88790, "BSTAR": 0.0015083, "MEAN_MOTION_DOT": 0.00016676, "MEAN_MOTION_DDOT": 0}, "tle": {"line1": "1 34449U 93036SS  25353.22992813  .00016676  00000+0  15083-2 0  9993", "line2": "2 34449  74.0328  57.4655 0022749  95.9476 319.8524 14.95222496887904"}}, "geometry": {"type": "Point", "coordinates": [6.153157520690963, -68.54781556321507]}}, {"type": "Feature", "properties": {"norad_id": 34451, "name": "COSMOS 2251 DEB", "group": "cosmos-2251-debris", "lat": -72.36849839673759, "lon": 6.065117320862526, "alt_km": 602.382591376193, "timestamp": "2025-12-21T11:31:43.253822+00:00", "meta": {"OBJECT_NAME": "COSMOS 2251 DEB", "OBJECT_ID": "1993-036SU", "EPOCH": "2025-12-20T15:01:58.696320", "MEAN_MOTION": 14.95981602, "ECCENTRICITY": 0.00238857, "INCLINATION": 74.0465, "RA_OF_ASC_NODE": 71.9548, "ARG_OF_PERICENTER": 86.7241, "MEAN_ANOMALY": 273.6675, "EPHEMERIS_TYPE": 0, "CLASSIFICATION_TYPE": "U", "NORAD_CAT_ID": 34451, "ELEMENT_SET_NO": 999, "REV_AT_EPOCH": 88753, "BSTAR": 0.0015186039, "MEAN_MOTION_DOT": 0.0001713, "MEAN_MOTION_DDOT": 0}, "tle": {"line1": "1 34451U 93036SU  25354.62637380  .00017130  00000+0  15186-2 0  9996", "line2": "2 34451  74.0465  71.9548 0023885  86.7241 273.6675 14.95981602887535"}}, "geometry": {"type": "Point", "coordinates": [6.065117320862526, -72.36849839673759]}}, {"type": "Feature", "properties": {"norad_id": 34452, "name": "COSMOS 2251 DEB", "group": "cosmos-2251-debris", "lat": 29.65347749322051, "lon": -24.6552911654514, "alt_km": 528.4558074108372, "timestamp": "2025-12-21T11:31:43.253832+00:00", "meta": {"OBJECT_NAME": "COSMOS 2251 DEB", "OBJECT_ID": "1993-036SV", "EPOCH": "2025-12-20T21:06:45.928800", "MEAN_MOTION": 15.1187856, "ECCENTRICITY": 0.0064944, "INCLINATION": 74.0319, "RA_OF_ASC_NODE": 165.9701, "ARG_OF_PERICENTER": 240.454, "MEAN_ANOMALY": 241.3455, "EPHEMERIS_TYPE": 0, "CLASSIFICATION_TYPE": "U", "NORAD_CAT_ID": 34452, "ELEMENT_SET_NO": 999, "REV_AT_EPOCH": 90785, "BSTAR": 0.00058518, "MEAN_MOTION_DOT": 0.00010508, "MEAN_MOTION_DDOT": 0}, "tle": {"line1": "1 34452U 93036SV  25354.87969825  .00010508  00000+0  58518-3 0  9995", "line2": "2 34452  74.0319 165.9701 0064944 240.4540 241.3455 15.11878560907854"}}, "geometry": {"type": "Point", "coordinates": [-24.6552911654514, 29.65347749322051]}}, {"type": "Feature", "properties": {"norad_id": 34454, "name": "COSMOS 2251 DEB", "group": "cosmos-2251-debris", "lat": 47.3871245991078, "lon": -80.35862221476192, "alt_km": 756.7168395981953, "timestamp": "2025-12-21T11:31:43.253843+00:00", "meta": {"OBJECT_NAME": "COSMOS 2251 DEB", "OBJECT_ID": "1993-036SX", "EPOCH": "2025-12-21T04:37:23.962080", "MEAN_MOTION": 14.38820831, "ECCENTRICITY": 0.0035863, "INCLINATION": 74.0587, "RA_OF_ASC_NODE": 262.0703, "ARG_OF_PERICENTER": 322.9202, "MEAN_ANOMALY": 36.9475, "EPHEMERIS_TYPE": 0, "CLASSIFICATION_TYPE": "U", "NORAD_CAT_ID": 34454, "ELEMENT_SET_NO": 999, "REV_AT_EPOCH": 88189, "BSTAR": 0.00016744, "MEAN_MOTION_DOT": 4.92e-06, "MEAN_MOTION_DDOT": 0}, "tle": {"line1": "1 34454U 93036SX  25355.19263845  .00000492  00000+0  16744-3 0  9998", "line2": "2 34454  74.0587 262.0703 0035863 322.9202  36.9475 14.38820831881894"}}, "geometry": {"type": "Point", "coordinates": [-80.35862221476192, 47.3871245991078]}}, {"type": "Feature", "properties": {"norad_id": 34459, "name": "COSMOS 2251 DEB", "group": "cosmos-2251-debris", "lat": -69.82800275042938, "lon": -172.04258752083484, "alt_km": 771.0929901343698, "timestamp": "2025-12-21T11:31:43.253853+00:00", "meta": {"OBJECT_NAME": "COSMOS 2251 DEB", "OBJECT_ID": "1993-036TC", "EPOCH": "2025-12-21T03:18:49.771584", "MEAN_MOTION": 14.00511873, "ECCENTRICITY": 0.0192105, "INCLINATION": 74.0786, "RA_OF_ASC_NODE": 239.5332, "ARG_OF_PERICENTER": 307.4299, "MEAN_ANOMALY": 50.9486, "EPHEMERIS_TYPE": 0, "CLASSIFICATION_TYPE": "U", "NORAD_CAT_ID": 34459, "ELEMENT_SET_NO": 999, "REV_AT_EPOCH": 85829, "BSTAR": 0.00029726, "MEAN_MOTION_DOT": 4.93e-06, "MEAN_MOTION_DDOT": 0}, "tle": {"line1": "1 34459U 93036TC  25355.13807606  .00000493  00000+0  29726-3 0  9991", "line2": "2 34459  74.0786 239.5332 0192105 307.4299  50.9486 14.00511873858292"}}, "geometry": {"type": "Point", "coordinates": [-172.04258752083484, -69.82800275042938]}}, {"type": "Feature", "properties": {"norad_id": 34464, "name": "COSMOS 2251 DEB", "group": "cosmos-2251-debris", "lat": 70.77606563267773, "lon": -175.74529095171755, "alt_km": 481.85786353731237, "timestamp": "2025-12-21T11:31:43.253863+00:00", "meta": {"OBJECT_NAME": "COSMOS 2251 DEB", "OBJECT_ID": "1993-036TH", "EPOCH": "2025-12-21T04:48:13.140576", "MEAN_MOTION": 15.28159123, "ECCENTRICITY": 0.0014614, "INCLINATION": 73.9904, "RA_OF_ASC_NODE": 60.2787, "ARG_OF_PERICENTER": 242.8332, "MEAN_ANOMALY": 117.138, "EPHEMERIS_TYPE": 0, "CLASSIFICATION_TYPE": "U", "NORAD_CAT_ID": 34464, "ELEMENT_SET_NO": 999, "REV_AT_EPOCH": 89969, "BSTAR": 0.0019349, "MEAN_MOTION_DOT": 0.00053635, "MEAN_MOTION_DDOT": 0}, "tle": {"line1": "1 34464U 93036TH  25355.20015209  .00053635  00000+0  19349-2 0  9990", "line2": "2 34464  73.9904  60.2787 0014614 242.8332 117.1380 15.28159123899694"}}, "geometry": {"type": "Point", "coordinates": [-175.74529095171755, 70.77606563267773]}}]}